SV3
1 42839U 17042N   24252.59147980  .00025389  00000+0  16888-2 0  9997
2 42839  97.3649  77.4961 0015447 106.4894 273.8033 15.07033709390194
